SATELIOT_3              
1 60552U 24149CN  26068.79802274  .00002865  00000+0  25003-3 0  9992
2 60552  97.6866 147.0596 0005831  63.3535 296.8284 14.97601684 85206
STARLINK-34432          
1 64426U 25129Q   26068.39847058 -.00001674  00000+0 -13251-3 0  9991
2 64426  70.0028  75.1898 0002962 245.8754 114.2096 14.98326888 41187
